{
    "links": {
        "self": "http://www.neowsapp.com/rest/v1/neo/54048901?api_key=iIulBulltgU6a56xZRHN4H3l9WmuAYTsLGpBGhQ2"
    },
    "id": "54048901",
    "neo_reference_id": "54048901",
    "name": "(2020 OR1)",
    "designation": "2020 OR1",
    "nasa_jpl_url": "http://ssd.jpl.nasa.gov/sbdb.cgi?sstr=54048901",
    "absolute_magnitude_h": 23.364,
    "estimated_diameter": {
        "kilometers": {
            "estimated_diameter_min": 0.0564618334,
            "estimated_diameter_max": 0.1262524977
        },
        "meters": {
            "estimated_diameter_min": 56.461833449,
            "estimated_diameter_max": 126.2524977262
        },
        "miles": {
            "estimated_diameter_min": 0.0350837459,
            "estimated_diameter_max": 0.0784496408
        },
        "feet": {
            "estimated_diameter_min": 185.2422416528,
            "estimated_diameter_max": 414.2142446401
        }
    },
    "is_potentially_hazardous_asteroid": false,
    "close_approach_data": [
        {
            "close_approach_date": "2020-08-03",
            "close_approach_date_full": "2020-Aug-03 10:48",
            "epoch_date_close_approach": 1596451680000,
            "relative_velocity": {
                "kilometers_per_second": "18.5082650249",
                "kilometers_per_hour": "66629.7540895025",
                "miles_per_hour": "41401.1380341134"
            },
            "miss_distance": {
                "astronomical": "0.1248089496",
                "lunar": "48.5506813944",
                "kilometers": "18671153.017097352",
                "miles": "11601716.5060813776"
            },
            "orbiting_body": "Earth"
        }
    ],
    "orbital_data": {
        "orbit_id": "1",
        "orbit_determination_date": "2020-07-21 15:42:15",
        "first_observation_date": "2020-07-18",
        "last_observation_date": "2020-07-21",
        "data_arc_in_days": 3,
        "observations_used": 11,
        "orbit_uncertainty": "9",
        "minimum_orbit_intersection": ".121076",
        "jupiter_tisserand_invariant": "4.424",
        "epoch_osculation": "2459050.5",
        "eccentricity": ".4336588078281015",
        "semi_major_axis": "1.453814706786347",
        "inclination": "27.52161789321019",
        "ascending_node_longitude": "123.5545834058909",
        "orbital_period": "640.2683198230637",
        "perihelion_distance": ".823355154238419",
        "perihelion_argument": "270.4205108459929",
        "aphelion_distance": "2.084274259334276",
        "perihelion_time": "2459127.321585999266",
        "mean_anomaly": "316.8059669618226",
        "mean_motion": ".5622642708598872",
        "equinox": "J2000",
        "orbit_class": {
            "orbit_class_type": "APO",
            "orbit_class_description": "Near-Earth asteroid orbits which cross the Earth’s orbit similar to that of 1862 Apollo",
            "orbit_class_range": "a (semi-major axis) > 1.0 AU; q (perihelion) < 1.017 AU"
        }
    },
    "is_sentry_object": false
}